IRIDIUM 144             
1 43249U 18030A   24277.80239628  .00001007  00000+0  35238-3 0  9995
2 43249  86.4045 190.1079 0002483  84.4995 275.6484 14.34221166341075
IRIDIUM 149             
1 43250U 18030B   24277.59943529  .00001391  00000+0  48947-3 0  9992
2 43250  86.4042 190.1669 0002439  78.8971 281.2499 14.34219830341064
IRIDIUM 157             
1 43251U 18030C   24277.82776501  .00000220  00000+0  71420-4 0  9996
2 43251  86.4042 190.1110 0002313  73.0488 287.0961 14.34219848341075
IRIDIUM 140             
1 43252U 18030D   24277.70725029  .00003231  00000+0  11460-2 0  9994
2 43252  86.4044 190.1754 0002161  88.3874 271.7570 14.34221767341115
IRIDIUM 145             
1 43253U 18030E   24277.83409387  .00001459  00000+0  51386-3 0  9997
2 43253  86.4041 190.0962 0002885  91.7270 268.4256 14.34218023341063
IRIDIUM 146             
1 43254U 18030F   24277.81508255  .00000533  00000+0  18340-3 0  9995
2 43254  86.4039 190.1183 0002532  89.9022 270.2464 14.34218370341078
IRIDIUM 148             
1 43255U 18030G   24277.71358422  .00001433  00000+0  50456-3 0  9998
2 43255  86.4043 190.1940 0002408  83.6660 276.4810 14.34229678341094
IRIDIUM 142             
1 43256U 18030H   24277.12373743  .00001732  00000+0  61104-3 0  9991
2 43256  86.4046 190.3516 0002874  87.4864 272.6661 14.34222021340977
